[{"OBJECT_NAME":"POPACS 2","OBJECT_ID":"2013-055E","EPOCH":"2026-03-09T12:13:44.500512","MEAN_MOTION":14.87802959,"ECCENTRICITY":0.04307455,"INCLINATION":80.9893,"RA_OF_ASC_NODE":258.0384,"ARG_OF_PERICENTER":153.4128,"MEAN_ANOMALY":208.9906,"EPHEMERIS_TYPE":0,"CLASSIFICATION_TYPE":"U","NORAD_CAT_ID":39269,"ELEMENT_SET_NO":999,"REV_AT_EPOCH":64837,"BSTAR":0.00051934698,"MEAN_MOTION_DOT":0.00029878,"MEAN_MOTION_DDOT":0},{"OBJECT_NAME":"OPS 3367 B","OBJECT_ID":"1964-002C","EPOCH":"2026-03-09T17:40:48.608544","MEAN_MOTION":14.28555137,"ECCENTRICITY":0.00155796,"INCLINATION":98.9814,"RA_OF_ASC_NODE":350.5639,"ARG_OF_PERICENTER":233.0489,"MEAN_ANOMALY":126.9266,"EPHEMERIS_TYPE":0,"CLASSIFICATION_TYPE":"U","NORAD_CAT_ID":735,"ELEMENT_SET_NO":999,"REV_AT_EPOCH":23251,"BSTAR":7.776016e-5,"MEAN_MOTION_DOT":1.48e-6,"MEAN_MOTION_DDOT":0}]
